NORAD_CAT_ID,OBJECT_NAME,OBJECT_TYPE,EPOCH,MEAN_MOTION,ECCENTRICITY,INCLINATION,RA_OF_ASC_NODE,ARG_OF_PERICENTER,MEAN_ANOMALY,BSTAR,MEAN_MOTION_DOT,MEAN_MOTION_DDOT,TLE_LINE0,TLE_LINE1,TLE_LINE2,SEMIMAJOR_AXIS,PERIOD,APOGEE,PERIGEE,DECAYED
54086.0,STARLINK-5211,PAYLOAD,2024-04-29 17:33:55,15.08843382,0.0001356,53.2172,127.1829,87.564,272.5507,9.729e-05,1.261e-05,0.0,0 STARLINK-5211,1 54086U 22136AM  24120.73188738  .00001261  00000-0  97290-4 0  9992,2 54086  53.2172 127.1829 0001356  87.5640 272.5507 15.08843382 84697,6917.87,95.437,540.673,538.797,0.0
54086.0,STARLINK-5211,PAYLOAD,2024-04-30 07:52:23,15.08839243,0.0001269,53.2161,124.5056,85.6203,274.4934,0.00015064,2.11e-05,0.0,0 STARLINK-5211,1 54086U 22136AM  24121.32805022  .00002110  00000-0  15064-3 0  9992,2 54086  53.2161 124.5056 0001269  85.6203 274.4934 15.08839243 85254,6917.883,95.438,540.626,538.87,0.0
54086.0,STARLINK-5211,PAYLOAD,2024-04-30 17:24:42,15.08844522,0.0001279,53.2161,122.7218,85.7617,274.3521,0.00015567,2.191e-05,0.0,0 STARLINK-5211,1 54086U 22136AM  24121.72548686  .00002191  00000-0  15567-3 0  9993,2 54086  53.2161 122.7218 0001279  85.7617 274.3521 15.08844522 84846,6917.867,95.437,540.616,538.847,0.0
54086.0,STARLINK-5211,PAYLOAD,2024-05-01 09:18:33,15.08846769,0.0001428,53.2165,119.7487,85.3655,274.75,8.2809e-05,1.03e-05,0.0,0 STARLINK-5211,1 54086U 22136AM  24122.38788646  .00001030  00000-0  82809-4 0  9993,2 54086  53.2165 119.7487 0001428  85.3655 274.7500 15.08846769 85418,6917.86,95.437,540.713,538.737,0.0
54086.0,STARLINK-5211,PAYLOAD,2024-05-01 17:15:28,15.08848336,0.0001438,53.2168,118.2616,85.1139,275.0017,6.9112e-05,8.12e-06,0.0,0 STARLINK-5211,1 54086U 22136AM  24122.71908375  .00000812  00000-0  69112-4 0  9992,2 54086  53.2168 118.2616 0001438  85.1139 275.0017 15.08848336 84996,6917.855,95.437,540.715,538.725,0.0
54086.0,STARLINK-5211,PAYLOAD,2024-05-02 09:09:20,15.08843295,0.0001479,53.2169,115.2872,89.1171,270.999,2.2647e-05,7.2e-07,0.0,0 STARLINK-5211,1 54086U 22136AM  24123.38148606  .00000072  00000-0  22647-4 0  9999,2 54086  53.2169 115.2872 0001479  89.1171 270.9990 15.08843295 85560,6917.87,95.437,540.758,538.712,0.0
54086.0,STARLINK-5211,PAYLOAD,2024-05-03 09:00:06,15.08846157,0.0001481,53.2174,110.826,91.2248,268.8914,4.934e-05,4.97e-06,0.0,0 STARLINK-5211,1 54086U 22136AM  24124.37508050  .00000497  00000-0  49340-4 0  9992,2 54086  53.2174 110.8260 0001481  91.2248 268.8914 15.08846157 85247,6917.862,95.437,540.751,538.702,0.0
54086.0,STARLINK-5211,PAYLOAD,2024-05-04 05:40:07,15.08849014,0.0001343,53.2168,106.9597,96.8031,263.3114,0.00012539,1.709e-05,0.0,0 STARLINK-5211,1 54086U 22136AM  24125.23619247  .00001709  00000-0  12539-3 0  9995,2 54086  53.2168 106.9597 0001343  96.8031 263.3114 15.08849014 85840,6917.853,95.437,540.647,538.789,0.0
54086.0,STARLINK-5211,PAYLOAD,2024-05-05 05:30:55,15.08831834,0.0001339,53.2171,102.5005,92.7263,267.3882,-2.4881e-05,-6.84e-06,0.0,0 STARLINK-5211,1 54086U 22136AM  24126.22980734 -.00000684  00000-0 -24881-4 0  9994,2 54086  53.2171 102.5005 0001339  92.7263 267.3882 15.08831834 85990,6917.905,95.438,540.697,538.844,0.0
54086.0,STARLINK-5211,PAYLOAD,2024-05-05 21:24:46,15.08834478,0.000135,53.2173,99.5276,104.4648,255.6494,-2.1361e-05,-6.28e-06,0.0,0 STARLINK-5211,1 54086U 22136AM  24126.89220729 -.00000628  00000-0 -21361-4 0  9996,2 54086  53.2173  99.5276 0001350 104.4648 255.6494 15.08834478 85624,6917.897,95.438,540.696,538.828,0.0
54086.0,STARLINK-5211,PAYLOAD,2024-05-06 03:46:19,15.08836919,0.0001298,53.217,98.3376,100.5865,259.5274,-5.2046e-05,-1.116e-05,0.0,0 STARLINK-5211,1 54086U 22136AM  24127.15716833 -.00001116  00000-0 -52046-4 0  9999,2 54086  53.2170  98.3376 0001298 100.5865 259.5274 15.08836919 85663,6917.89,95.438,540.653,538.857,0.0
54086.0,STARLINK-5211,PAYLOAD,2024-05-06 14:54:00,15.08844471,0.0001343,53.2178,96.2557,96.7074,263.4071,1.6632e-05,-2.3e-07,0.0,0 STARLINK-5211,1 54086U 22136AM  24127.62084301 -.00000023  00000-0  16632-4 0  9995,2 54086  53.2178  96.2557 0001343  96.7074 263.4071 15.08844471 86200,6917.867,95.437,540.661,538.803,0.0
54086.0,STARLINK-5211,PAYLOAD,2024-05-07 05:12:29,15.08835968,0.0001368,53.2177,93.5792,88.2191,271.8958,0.00020113,2.914e-05,0.0,0 STARLINK-5211,1 54086U 22136AM  24128.21700989  .00002914  00000-0  20113-3 0  9996,2 54086  53.2177  93.5792 0001368  88.2191 271.8958 15.08835968 86290,6917.893,95.438,540.704,538.811,0.0
54086.0,STARLINK-5211,PAYLOAD,2024-05-07 06:47:52,15.08838635,0.0001418,53.2169,93.2815,87.8653,272.2502,0.00025044,3.7e-05,0.0,0 STARLINK-5211,1 54086U 22136AM  24128.28324939  .00003700  00000-0  25044-3 0  9992,2 54086  53.2169  93.2815 0001418  87.8653 272.2502 15.08838635 85831,6917.885,95.438,540.731,538.769,0.0
54086.0,STARLINK-5211,PAYLOAD,2024-05-07 14:44:48,15.08844368,0.0001425,53.2166,91.7934,79.4221,280.6931,0.00037282,5.651e-05,0.0,0 STARLINK-5211,1 54086U 22136AM  24128.61444750  .00005651  00000-0  37282-3 0  9997,2 54086  53.2166  91.7934 0001425  79.4221 280.6931 15.08844368 85883,6917.867,95.437,540.718,538.746,0.0
54086.0,STARLINK-5211,PAYLOAD,2024-05-08 06:38:40,15.08841378,0.00014,53.2165,88.8204,83.9545,276.1606,0.00018829,2.71e-05,0.0,0 STARLINK-5211,1 54086U 22136AM  24129.27685192  .00002710  00000-0  18829-3 0  9996,2 54086  53.2165  88.8204 0001400  83.9545 276.1606 15.08841378 86452,6917.876,95.437,540.71,538.773,0.0
54086.0,STARLINK-5211,PAYLOAD,2024-05-08 14:35:35,15.08845861,0.0001439,53.2164,87.3351,83.872,276.2436,0.00024553,3.622e-05,0.0,0 STARLINK-5211,1 54086U 22136AM  24129.60804990  .00003622  00000-0  24553-3 0  9996,2 54086  53.2164  87.3351 0001439  83.8720 276.2436 15.08845861 86031,6917.862,95.437,540.723,538.732,0.0
54086.0,STARLINK-5211,PAYLOAD,2024-05-09 03:18:41,15.08833584,0.0001416,53.2165,84.9543,95.7058,264.4096,2.3659e-05,8.9e-07,0.0,0 STARLINK-5211,1 54086U 22136AM  24130.13797639  .00000089  00000-0  23659-4 0  9998,2 54086  53.2165  84.9543 0001416  95.7058 264.4096 15.08833584 86589,6917.9,95.438,540.745,538.785,0.0
54086.0,STARLINK-5211,PAYLOAD,2024-05-09 14:26:22,15.08849332,0.0001529,53.2163,82.8718,94.5114,265.6053,0.00019611,2.835e-05,0.0,0 STARLINK-5211,1 54086U 22136AM  24130.60165032  .00002835  00000-0  19611-3 0  9999,2 54086  53.2163  82.8718 0001529  94.5114 265.6053 15.08849332 86655,6917.852,95.437,540.775,538.659,0.0
54086.0,STARLINK-5211,PAYLOAD,2024-05-10 03:09:28,15.08840018,0.0001549,53.2161,80.4941,95.3688,264.7481,0.0002157,3.147e-05,0.0,0 STARLINK-5211,1 54086U 22136AM  24131.13157701  .00003147  00000-0  21570-3 0  9996,2 54086  53.2161  80.4941 0001549  95.3688 264.7481 15.08840018 86738,6917.88,95.438,540.817,538.674,0.0
54086.0,STARLINK-5211,PAYLOAD,2024-05-11 03:00:14,15.0887035,0.0001698,53.2175,76.0334,112.0988,248.0184,0.00057499,8.882e-05,0.0,0 STARLINK-5211,1 54086U 22136AM  24132.12516862  .00008882  00000-0  57499-3 0  9993,2 54086  53.2175  76.0334 0001698 112.0988 248.0184 15.08870350 86888,6917.788,95.436,540.827,538.478,0.0
54086.0,STARLINK-5211,PAYLOAD,2024-05-11 06:10:59,15.08876954,0.0001475,53.2177,75.438,101.6459,258.4699,0.00060348,9.339e-05,0.0,0 STARLINK-5211,1 54086U 22136AM  24132.25763873  .00009339  00000-0  60348-3 0  9998,2 54086  53.2177  75.4380 0001475 101.6459 258.4699 15.08876954 86909,6917.767,95.435,540.653,538.612,0.0
54086.0,STARLINK-5211,PAYLOAD,2024-05-12 02:51:02,15.08761544,0.0001836,53.2183,71.5726,90.9064,269.2138,-0.0021255,-0.00033885,0.0,0 STARLINK-5211,1 54086U 22136AM  24133.11878390 -.00033885  00000-0 -21255-2 0  9993,2 54086  53.2183  71.5726 0001836  90.9064 269.2138 15.08761544 87031,6918.12,95.443,541.255,538.715,0.0
54086.0,STARLINK-5211,PAYLOAD,2024-05-12 12:23:24,15.08757253,0.0001558,53.218,69.7898,109.6389,250.4772,-0.0013413,-0.00021523,0.0,0 STARLINK-5211,1 54086U 22136AM  24133.51625623 -.00021523  00000-0 -13413-2 0  9999,2 54086  53.2180  69.7898 0001558 109.6389 250.4772 15.08757253 86628,6918.133,95.443,541.076,538.92,0.0
54086.0,STARLINK-5211,PAYLOAD,2024-05-13 02:41:52,15.08816852,0.0001666,53.2178,67.1178,114.1226,245.9941,0.00032316,4.856e-05,0.0,0 STARLINK-5211,1 54086U 22136AM  24134.11241017  .00004856  00000-0  32316-3 0  9999,2 54086  53.2178  67.1178 0001666 114.1226 245.9941 15.08816852 87189,6917.951,95.439,540.969,538.664,0.0
54086.0,STARLINK-5211,PAYLOAD,2024-05-13 12:14:11,15.08826222,0.0001794,53.219,65.3329,109.3959,250.7227,0.0015313,0.00024158,0.0,0 STARLINK-5211,1 54086U 22136AM  24134.50986036  .00024158  00000-0  15313-2 0  9993,2 54086  53.2190  65.3329 0001794 109.3959 250.7227 15.08826222 86779,6917.923,95.438,541.029,538.546,0.0
54086.0,STARLINK-5211,PAYLOAD,2024-05-14 04:08:01,15.08883695,0.0001522,53.2176,62.358,107.8924,252.2234,0.0010704,0.00016809,0.0,0 STARLINK-5211,1 54086U 22136AM  24135.17224053  .00016809  00000-0  10704-2 0  9994,2 54086  53.2176  62.3580 0001522 107.8924 252.2234 15.08883695 87349,6917.747,95.435,540.665,538.559,0.0
54086.0,STARLINK-5211,PAYLOAD,2024-05-14 12:04:56,15.08900025,0.0001697,53.2176,60.8696,81.8431,278.2753,0.0011957,0.00018824,0.0,0 STARLINK-5211,1 54086U 22136AM  24135.50342988  .00018824  00000-0  11957-2 0  9999,2 54086  53.2176  60.8696 0001697  81.8431 278.2753 15.08900025 86921,6917.697,95.434,540.736,538.388,0.0
54086.0,STARLINK-5211,PAYLOAD,2024-05-15 02:23:24,15.08869777,0.00014,53.2166,58.195,90.9056,269.2097,0.0017256,0.00027304,0.0,0 STARLINK-5211,1 54086U 22136AM  24136.09958491  .00027304  00000-0  17256-2 0  9997,2 54086  53.2166  58.1950 0001400  90.9056 269.2097 15.08869777 87480,6917.789,95.436,540.623,538.686,0.0
54086.0,STARLINK-5211,PAYLOAD,2024-05-15 18:17:14,15.08867652,0.0001412,53.2169,55.2205,103.9703,256.1446,0.0013664,0.00021542,0.0,0 STARLINK-5211,1 54086U 22136AM  24136.76197830  .00021542  00000-0  13664-2 0  9990,2 54086  53.2169  55.2205 0001412 103.9703 256.1446 15.08867652 87585,6917.796,95.436,540.638,538.684,0.0
